{
    "links": {
        "self": "http://www.neowsapp.com/rest/v1/neo/3690684?api_key=iIulBulltgU6a56xZRHN4H3l9WmuAYTsLGpBGhQ2"
    },
    "id": "3690684",
    "neo_reference_id": "3690684",
    "name": "(2014 SB224)",
    "designation": "2014 SB224",
    "nasa_jpl_url": "http://ssd.jpl.nasa.gov/sbdb.cgi?sstr=3690684",
    "absolute_magnitude_h": 26.3,
    "estimated_diameter": {
        "kilometers": {
            "estimated_diameter_min": 0.0146067964,
            "estimated_diameter_max": 0.0326617897
        },
        "meters": {
            "estimated_diameter_min": 14.6067964271,
            "estimated_diameter_max": 32.6617897446
        },
        "miles": {
            "estimated_diameter_min": 0.0090762397,
            "estimated_diameter_max": 0.020295089
        },
        "feet": {
            "estimated_diameter_min": 47.92256199,
            "estimated_diameter_max": 107.1581062656
        }
    },
    "is_potentially_hazardous_asteroid": false,
    "close_approach_data": [
        {
            "close_approach_date": "2014-09-22",
            "close_approach_date_full": "2014-Sep-22 07:48",
            "epoch_date_close_approach": 1411372080000,
            "relative_velocity": {
                "kilometers_per_second": "12.9935106141",
                "kilometers_per_hour": "46776.6382109332",
                "miles_per_hour": "29065.1838927879"
            },
            "miss_distance": {
                "astronomical": "0.0031129658",
                "lunar": "1.2109436962",
                "kilometers": "465693.053062846",
                "miles": "289368.2449894348"
            },
            "orbiting_body": "Moon"
        },
        {
            "close_approach_date": "2014-09-22",
            "close_approach_date_full": "2014-Sep-22 13:46",
            "epoch_date_close_approach": 1411393560000,
            "relative_velocity": {
                "kilometers_per_second": "12.2126017396",
                "kilometers_per_hour": "43965.3662625902",
                "miles_per_hour": "27318.36883133"
            },
            "miss_distance": {
                "astronomical": "0.0051757643",
                "lunar": "2.0133723127",
                "kilometers": "774283.314902041",
                "miles": "481117.3421725258"
            },
            "orbiting_body": "Earth"
        }
    ],
    "orbital_data": {
        "orbit_id": "4",
        "orbit_determination_date": "2017-04-06 08:38:28",
        "first_observation_date": "2014-09-24",
        "last_observation_date": "2014-09-29",
        "data_arc_in_days": 5,
        "observations_used": 33,
        "orbit_uncertainty": "7",
        "minimum_orbit_intersection": ".000799168",
        "jupiter_tisserand_invariant": "3.274",
        "epoch_osculation": "2459000.5",
        "eccentricity": ".6133809154645944",
        "semi_major_axis": "2.352002142756475",
        "inclination": ".6154011972064798",
        "ascending_node_longitude": "354.6907596931209",
        "orbital_period": "1317.513264963666",
        "perihelion_distance": ".9093289152578209",
        "perihelion_argument": "323.1731401989737",
        "aphelion_distance": "3.794675370255129",
        "perihelion_time": "2459526.782643412898",
        "mean_anomaly": "216.1974617888435",
        "mean_motion": ".2732420307054199",
        "equinox": "J2000",
        "orbit_class": {
            "orbit_class_type": "APO",
            "orbit_class_description": "Near-Earth asteroid orbits which cross the Earth’s orbit similar to that of 1862 Apollo",
            "orbit_class_range": "a (semi-major axis) > 1.0 AU; q (perihelion) < 1.017 AU"
        }
    },
    "is_sentry_object": false
}